     3.02           N: GNSS NAV DATA    M: MIXED NAV DATA   RINEX VERSION / TYPE
NetR9 5.30          Receiver Operator   20171005 000000 UTC PGM / RUN BY / DATE
GPSA    .1024D-07   .7451D-08  -.5960D-07  -.5960D-07       IONOSPHERIC CORR
GPSB    .8806D+05   .0000D+00  -.1966D+06  -.6554D+05       IONOSPHERIC CORR
GAL     .6750D+02   .6641D-01  -.2594D-02   .0000D+00       IONOSPHERIC CORR
QZSA    .1583D-07   .7451D-08  -.5960D-06  -.1669D-05       IONOSPHERIC CORR
QZSB    .1044D+06  -.1802D+06  -.1180D+07  -.9175D+06       IONOSPHERIC CORR
GPUT   .2793967724D-08  .621724894D-14 503808 1969          TIME SYSTEM CORR
GAUT   .9313225746D-09  .000000000D+00 259200 1969          TIME SYSTEM CORR
QZUT   .1862645149D-08  .000000000D+00 528384 1969          TIME SYSTEM CORR
    18    18  1929     7                                    LEAP SECONDS
                                                            END OF HEADER
E19 2017 10 05 20 50 00  .149057595991D-04  .426325641456D-12  .000000000000D+00
      .610000000000D+02  .198437500000D+02  .278261590712D-08 -.142136332069D+00
      .772997736931D-06  .146789127029D-03  .171400606632D-04  .544063723564D+04
      .420600000000D+06 -.149011611938D-07  .312629799136D+01 -.316649675369D-07
      .958925962773D+00 -.301562500000D+02 -.256401757026D+01 -.538308136980D-08
     -.164649715464D-09  .516000000000D+03  .196900000000D+04
      .122000000000D+03  .000000000000D+00 -.861473381519D-08 -.954605638981D-08
      .421294000000D+06
E14 2017 10 05 20 50 00  .670369446743D-02 -.665068000671D-11  .000000000000D+00
      .610000000000D+02  .513437500000D+02  .687814364515D-08 -.400358809580D+00
      .373087823391D-05  .163056075806D+00  .103656202555D-04  .528931580925D+04
      .420600000000D+06 -.164099037647D-05  .522042495062D+00  .156462192535D-05
      .880023274285D+00  .162187500000D+03  .119323122186D+01 -.114747636843D-07
      .318584698903D-09  .516000000000D+03  .196900000000D+04
      .122000000000D+03  .300000000000D+01  .328291207552D-07  .367872416973D-07
      .421294000000D+06
E30 2017 10 05 20 50 00  .643150473479D-02 -.310365066980D-10  .000000000000D+00
      .610000000000D+02 -.107062500000D+03  .301976864263D-08  .860289428108D-01
     -.493600964546D-05  .359719851986D-04  .325404107571D-05  .544060772133D+04
      .420600000000D+06  .186264514923D-08 -.105961384067D+01 -.167638063431D-07
      .993295629927D+00  .285625000000D+03 -.259122638069D+01 -.583274295716D-08
     -.535379443560D-09  .513000000000D+03  .196900000000D+04
      .122000000000D+03  .000000000000D+00 -.349245965481D-08 -.419095158577D-08
      .421285000000D+06
E14 2017 10 05 20 50 00  .670369446743D-02 -.665068000671D-11  .000000000000D+00
      .610000000000D+02  .513437500000D+02  .687814364515D-08 -.400358809580D+00
      .373087823391D-05  .163056075806D+00  .103656202555D-04  .528931580925D+04
      .420600000000D+06 -.164099037647D-05  .522042495062D+00  .156462192535D-05
      .880023274285D+00  .162187500000D+03  .119323122186D+01 -.114747636843D-07
      .318584698903D-09  .513000000000D+03  .196900000000D+04
      .122000000000D+03  .300000000000D+01  .328291207552D-07  .367872416973D-07
      .421285000000D+06
E19 2017 10 05 20 50 00  .149057595991D-04  .426325641456D-12  .000000000000D+00
      .610000000000D+02  .198437500000D+02  .278261590712D-08 -.142136332069D+00
      .772997736931D-06  .146789127029D-03  .171400606632D-04  .544063723564D+04
      .420600000000D+06 -.149011611938D-07  .312629799136D+01 -.316649675369D-07
      .958925962773D+00 -.301562500000D+02 -.256401757026D+01 -.538308136980D-08
     -.164649715464D-09  .513000000000D+03  .196900000000D+04
      .122000000000D+03  .000000000000D+00 -.861473381519D-08 -.954605638981D-08
      .421285000000D+06
E14 2017 10 05 20 50 00  .670369062573D-02 -.665068000671D-11  .000000000000D+00
      .610000000000D+02  .513437500000D+02  .687814364515D-08 -.400358809580D+00
      .373087823391D-05  .163056075806D+00  .103656202555D-04  .528931580925D+04
      .420600000000D+06 -.164099037647D-05  .522042495062D+00  .156462192535D-05
      .880023274285D+00  .162187500000D+03  .119323122186D+01 -.114747636843D-07
      .318584698903D-09  .258000000000D+03  .196900000000D+04
      .122000000000D+03  .000000000000D+00  .328291207552D-07  .000000000000D+00
      .421330000000D+06
E19 2017 10 05 20 50 00  .149064580910D-04  .412114786741D-12  .000000000000D+00
      .610000000000D+02  .198437500000D+02  .278261590712D-08 -.142136332069D+00
      .772997736931D-06  .146789127029D-03  .171400606632D-04  .544063723564D+04
      .420600000000D+06 -.149011611938D-07  .312629799136D+01 -.316649675369D-07
      .958925962773D+00 -.301562500000D+02 -.256401757026D+01 -.538308136980D-08
     -.164649715464D-09  .258000000000D+03  .196900000000D+04
      .122000000000D+03  .000000000000D+00 -.861473381519D-08  .000000000000D+00
      .421330000000D+06
E30 2017 10 05 20 50 00  .643150525866D-02 -.310365066980D-10  .000000000000D+00
      .610000000000D+02 -.107062500000D+03  .301976864263D-08  .860289428108D-01
     -.493600964546D-05  .359719851986D-04  .325404107571D-05  .544060772133D+04
      .420600000000D+06  .186264514923D-08 -.105961384067D+01 -.167638063431D-07
      .993295629927D+00  .285625000000D+03 -.259122638069D+01 -.583274295716D-08
     -.535379443560D-09  .258000000000D+03  .196900000000D+04
      .122000000000D+03  .000000000000D+00 -.349245965481D-08  .000000000000D+00
      .421330000000D+06
C07 2017 10 05 21 00 00  .639127101749D-04 -.123332455360D-10  .000000000000D+00
      .100000000000D+01 -.505859375000D+03  .206330023045D-08 -.122400663389D+01
     -.168643891811D-04  .590261700563D-02 -.378582626581D-06  .649385689163D+04
      .421200000000D+06 -.198837369680D-06 -.104543298136D+01  .507570803165D-07
      .924066240005D+00  .238031250000D+03 -.267924639451D+01 -.292047879252D-08
     -.888251284946D-09  .000000000000D+00  .613000000000D+03  .000000000000D+00
      .240000000000D+01  .000000000000D+00  .144000003033D-07  .700000002407D-09
      .421320000000D+06  .000000000000D+00
E26 2017 10 05 20 50 00  .676252611447D-02 -.431299440606D-10  .000000000000D+00
      .610000000000D+02  .124500000000D+03  .325584990493D-08 -.258306894175D+01
      .587850809097D-05  .267800991423D-03  .570900738239D-05  .544059892082D+04
      .420600000000D+06  .856816768646D-07  .103006403947D+01  .931322574615D-08
      .971848515037D+00  .224218750000D+03  .268519651390D+01 -.586131557589D-08
      .746459664470D-09  .516000000000D+03  .196900000000D+04
      .122000000000D+03  .000000000000D+00  .465661287308D-09  .465661287308D-09
      .421474000000D+06
E26 2017 10 05 20 50 00  .676252611447D-02 -.431299440606D-10  .000000000000D+00
      .610000000000D+02  .124500000000D+03  .325584990493D-08 -.258306894175D+01
      .587850809097D-05  .267800991423D-03  .570900738239D-05  .544059892082D+04
      .420600000000D+06  .856816768646D-07  .103006403947D+01  .931322574615D-08
      .971848515037D+00  .224218750000D+03  .268519651390D+01 -.586131557589D-08
      .746459664470D-09  .513000000000D+03  .196900000000D+04
      .122000000000D+03  .000000000000D+00  .465661287308D-09  .465661287308D-09
      .421495000000D+06
E26 2017 10 05 20 50 00  .676252623089D-02 -.431299440606D-10  .000000000000D+00
      .610000000000D+02  .124500000000D+03  .325584990493D-08 -.258306894175D+01
      .587850809097D-05  .267800991423D-03  .570900738239D-05  .544059892082D+04
      .420600000000D+06  .856816768646D-07  .103006403947D+01  .931322574615D-08
      .971848515037D+00  .224218750000D+03  .268519651390D+01 -.586131557589D-08
      .746459664470D-09  .258000000000D+03  .196900000000D+04
      .122000000000D+03  .000000000000D+00  .465661287308D-09  .000000000000D+00
      .421530000000D+06
G07 2017 10 05 22 00 00  .297104008496D-03 -.500222085975D-11  .000000000000D+00
      .100000000000D+02  .182812500000D+02  .509806949791D-08 -.922771697945D+00
      .942498445511D-06  .110794425709D-01  .203214585781D-05  .515371204185D+04
      .424800000000D+06  .234693288803D-06 -.161701520322D+01  .540167093277D-07
      .960570186141D+00  .339125000000D+03 -.255405470023D+01 -.868429030698D-08
     -.214294640518D-11  .100000000000D+01  .196900000000D+04  .000000000000D+00
      .240000000000D+01  .000000000000D+00 -.111758708954D-07  .100000000000D+02
      .421596000000D+06  .400000000000D+01
E19 2017 10 05 21 00 00  .149059924297D-04  .426325641456D-12  .000000000000D+00
      .620000000000D+02  .207187500000D+02  .278083011845D-08 -.679855569913D-01
      .808387994766D-06  .146898673847D-03  .171475112438D-04  .544063746452D+04
      .421200000000D+06 -.931322574615D-08  .312629474222D+01 -.353902578354D-07
      .958925838424D+00 -.303125000000D+02 -.256378409439D+01 -.538736726261D-08
     -.161078138122D-09  .516000000000D+03  .196900000000D+04
      .122000000000D+03  .000000000000D+00 -.861473381519D-08 -.954605638981D-08
      .421894000000D+06
E14 2017 10 05 21 00 00  .670369050931D-02 -.666489086143D-11  .000000000000D+00
      .620000000000D+02  .510937500000D+02  .681421241073D-08 -.319403528530D+00
      .368617475033D-05  .163056123885D+00  .102892518044D-04  .528931602478D+04
      .421200000000D+06 -.180490314960D-05  .522036598040D+00  .139139592648D-05
      .880024470952D+00  .162718750000D+03  .119323036752D+01 -.113786882538D-07
      .510735559900D-10  .513000000000D+03  .196900000000D+04
      .122000000000D+03  .300000000000D+01  .328291207552D-07  .367872416973D-07
      .421885000000D+06
